NORAD_CAT_ID,OBJECT_NAME,OBJECT_TYPE,EPOCH,MEAN_MOTION,ECCENTRICITY,INCLINATION,RA_OF_ASC_NODE,ARG_OF_PERICENTER,MEAN_ANOMALY,BSTAR,MEAN_MOTION_DOT,MEAN_MOTION_DDOT,TLE_LINE0,TLE_LINE1,TLE_LINE2,SEMIMAJOR_AXIS,PERIOD,APOGEE,PERIGEE,DECAYED
56773.0,STARLINK-6296,PAYLOAD,2023-07-11 17:17:36,15.6992903,0.0003896,69.9973,296.7827,273.7702,86.3048,1.1454e-05,1.165e-05,0.0,0 STARLINK-6296,1 56773U 23078G   23192.72056507  .00001165  00000-0  11454-4 0  9999,2 56773  69.9973 296.7827 0003896 273.7702  86.3048 15.69929030  6816,6737.237,91.724,361.727,356.477,0.0
56773.0,STARLINK-6296,PAYLOAD,2023-07-12 16:13:53,15.69926557,0.00034,69.997,294.0964,269.8605,90.2201,7.8637e-06,7.33e-06,0.0,0 STARLINK-6296,1 56773U 23078G   23193.67631895  .00000733  00000-0  78637-5 0  9990,2 56773  69.9970 294.0964 0003400 269.8605  90.2201 15.69926557  6967,6737.244,91.724,361.4,356.818,0.0
56773.0,STARLINK-6296,PAYLOAD,2023-07-13 15:10:11,15.69919921,0.0003136,69.9973,291.4079,273.9729,86.1108,-2.0964e-06,-4.65e-06,0.0,0 STARLINK-6296,1 56773U 23078G   23194.63207361 -.00000465  00000-0 -20964-5 0  9998,2 56773  69.9973 291.4079 0003136 273.9729  86.1108 15.69919921  7112,6737.263,91.724,361.241,357.015,0.0
56773.0,STARLINK-6296,PAYLOAD,2023-07-14 09:31:12,15.69932286,0.000325,69.9979,289.2586,271.3374,88.7449,2.5508e-05,2.856e-05,0.0,0 STARLINK-6296,1 56773U 23078G   23195.39666967  .00002856  00000-0  25508-4 0  9995,2 56773  69.9979 289.2586 0003250 271.3374  88.7449 15.69932286  7239,6737.228,91.724,361.282,356.903,0.0
56773.0,STARLINK-6296,PAYLOAD,2023-07-14 23:16:58,15.6992174,0.0003501,69.9982,287.6457,268.4868,91.5927,3.9418e-06,2.61e-06,0.0,0 STARLINK-6296,1 56773U 23078G   23195.97012405  .00000261  00000-0  39418-5 0  9995,2 56773  69.9982 287.6457 0003501 268.4868  91.5927 15.69921740  7322,6737.258,91.724,361.482,356.764,0.0
56773.0,STARLINK-6296,PAYLOAD,2023-07-15 23:45:00,15.6991933,0.0003832,69.9974,284.7792,264.9124,95.1634,-4.937e-06,-8.07e-06,0.0,0 STARLINK-6296,1 56773U 23078G   23196.98959305 -.00000807  00000-0 -49370-5 0  9992,2 56773  69.9974 284.7792 0003832 264.9124  95.1634 15.69919330  7480,6737.265,91.724,361.712,356.548,0.0
56773.0,STARLINK-6296,PAYLOAD,2023-07-16 07:23:46,15.69929843,0.0003517,69.9975,283.8838,268.1485,91.9308,1.5008e-05,1.592e-05,0.0,0 STARLINK-6296,1 56773U 23078G   23197.30817287  .00001592  00000-0  15008-4 0  9991,2 56773  69.9975 283.8838 0003517 268.1485  91.9308 15.69929843  7536,6737.235,91.724,361.469,356.73,0.0
56773.0,STARLINK-6296,PAYLOAD,2023-07-16 22:41:17,15.69917426,0.0004241,69.9992,282.0933,266.1918,93.8793,-1.4731e-05,-1.984e-05,0.0,0 STARLINK-6296,1 56773U 23078G   23197.94534207 -.00001984  00000-0 -14731-4 0  9998,2 56773  69.9992 282.0933 0004241 266.1918  93.8793 15.69917426  7630,6737.27,91.725,361.993,356.278,0.0
56773.0,STARLINK-6296,PAYLOAD,2023-07-18 08:19:50,15.69925994,0.0003664,69.9976,278.1497,273.7977,86.28,3.1105e-05,3.529e-05,0.0,0 STARLINK-6296,1 56773U 23078G   23199.34711128  .00003529  00000-0  31105-4 0  9992,2 56773  69.9976 278.1497 0003664 273.7977  86.2800 15.69925994  7858,6737.246,91.724,361.579,356.642,0.0
56773.0,STARLINK-6296,PAYLOAD,2023-07-18 17:30:20,15.69936236,0.0003153,69.998,277.0759,280.1152,79.9688,5.7734e-05,6.738e-05,0.0,0 STARLINK-6296,1 56773U 23078G   23199.72940954  .00006738  00000-0  57734-4 0  9996,2 56773  69.9980 277.0759 0003153 280.1152  79.9688 15.69936236  7913,6737.216,91.723,361.206,356.957,0.0
56773.0,STARLINK-6296,PAYLOAD,2023-07-19 08:47:52,15.69922287,0.0002498,70.0,275.2853,262.4549,97.6363,2.3976e-05,2.671e-05,0.0,0 STARLINK-6296,1 56773U 23078G   23200.36658234  .00002671  00000-0  23976-4 0  9999,2 56773  70.0000 275.2853 0002498 262.4549  97.6363 15.69922287  8018,6737.256,91.724,360.804,357.438,0.0
56773.0,STARLINK-6296,PAYLOAD,2023-07-19 16:26:38,15.69932621,0.0002599,69.9992,274.3874,286.9712,73.1198,0.00010078,0.00011925,0.0,0 STARLINK-6296,1 56773U 23078G   23200.68516678  .00011925  00000-0  10078-3 0  9999,2 56773  69.9992 274.3874 0002599 286.9712  73.1198 15.69932621  8066,6737.227,91.724,360.843,357.341,0.0
56773.0,STARLINK-6296,PAYLOAD,2023-07-20 16:54:40,15.69923615,0.0003581,69.9987,271.5219,270.3256,89.753,7.4486e-06,6.83e-06,0.0,0 STARLINK-6296,1 56773U 23078G   23201.70463071  .00000683  00000-0  74486-5 0  9995,2 56773  69.9987 271.5219 0003581 270.3256  89.7530 15.69923615  8228,6737.253,91.724,361.53,356.705,0.0
56773.0,STARLINK-6296,PAYLOAD,2023-07-24 03:29:17,15.69942165,0.0003967,69.9991,261.8503,276.02,84.0544,9.4319e-05,0.00011153,0.0,0 STARLINK-6296,1 56773U 23078G   23205.14534591  .00011153  00000-0  94319-4 0  9993,2 56773  69.9991 261.8503 0003967 276.0200  84.0544 15.69942165  8506,6737.199,91.723,361.737,356.392,0.0
56773.0,STARLINK-6296,PAYLOAD,2023-07-25 13:07:49,15.69924412,0.0003462,70.0001,257.9074,267.9616,92.1183,-2.6269e-05,-3.37e-05,0.0,0 STARLINK-6296,1 56773U 23078G   23206.54710615 -.00003370  00000-0 -26269-4 0  9994,2 56773  70.0001 257.9074 0003462 267.9616  92.1183 15.69924412  8728,6737.25,91.724,361.448,356.783,0.0
56773.0,STARLINK-6296,PAYLOAD,2023-07-26 05:57:05,15.69931876,0.0003635,69.9986,255.9358,275.2001,84.8779,9.5849e-06,9.4e-06,0.0,0 STARLINK-6296,1 56773U 23078G   23207.24798210  .00000940  00000-0  95849-5 0  9998,2 56773  69.9986 255.9358 0003635 275.2001  84.8779 15.69931876  8835,6737.229,91.724,361.543,356.645,0.0
56773.0,STARLINK-6296,PAYLOAD,2023-07-26 15:07:36,15.69938052,0.0003302,69.999,254.8594,274.016,86.0658,5.7529e-05,6.714e-05,0.0,0 STARLINK-6296,1 56773U 23078G   23207.63028345  .00006714  00000-0  57529-4 0  9993,2 56773  69.9990 254.8594 0003302 274.0160  86.0658 15.69938052  9153,6737.211,91.723,361.301,356.852,0.0
56773.0,STARLINK-6296,PAYLOAD,2023-07-27 01:49:52,15.69927033,0.0002921,70.0001,253.6078,280.9262,79.1605,1.6651e-05,1.79e-05,0.0,0 STARLINK-6296,1 56773U 23078G   23208.07630509  .00001790  00000-0  16651-4 0  9993,2 56773  70.0001 253.6078 0002921 280.9262  79.1605 15.69927033  9228,6737.243,91.724,361.076,357.14,0.0
56773.0,STARLINK-6296,PAYLOAD,2023-07-27 09:28:38,15.69913645,0.0003621,69.9982,252.7103,270.4139,89.6642,-2.8507e-05,-3.638e-05,0.0,0 STARLINK-6296,1 56773U 23078G   23208.39489061 -.00003638  00000-0 -28507-4 0  9991,2 56773  69.9982 252.7103 0003621 270.4139  89.6642 15.69913645  9273,6737.281,91.725,361.586,356.706,0.0
56773.0,STARLINK-6296,PAYLOAD,2023-07-27 15:35:38,15.69926586,0.0003245,69.9989,251.9954,271.4085,88.6739,2.1425e-05,2.364e-05,0.0,0 STARLINK-6296,1 56773U 23078G   23208.64975616  .00002364  00000-0  21425-4 0  9990,2 56773  69.9989 251.9954 0003245 271.4085  88.6739 15.69926586  9317,6737.244,91.724,361.295,356.923,0.0
56773.0,STARLINK-6296,PAYLOAD,2023-07-27 20:10:54,15.6992485,0.0003108,69.9995,251.4568,269.1251,90.9589,1.9742e-05,2.162e-05,0.0,0 STARLINK-6296,1 56773U 23078G   23208.84090691  .00002162  00000-0  19742-4 0  9998,2 56773  69.9995 251.4568 0003108 269.1251  90.9589 15.69924850  9082,6737.249,91.724,361.208,357.02,0.0
56773.0,STARLINK-6296,PAYLOAD,2023-07-28 13:00:10,15.69927309,0.0002971,69.9995,249.4866,266.4827,93.6029,3.2954e-05,3.752e-05,0.0,0 STARLINK-6296,1 56773U 23078G   23209.54179127  .00003752  00000-0  32954-4 0  9994,2 56773  69.9995 249.4866 0002971 266.4827  93.6029 15.69927309  9199,6737.242,91.724,361.109,357.105,0.0
56773.0,STARLINK-6296,PAYLOAD,2023-07-29 02:45:56,15.69929439,0.0002958,69.9997,247.8737,267.867,92.2187,3.209e-05,3.648e-05,0.0,0 STARLINK-6296,1 56773U 23078G   23210.11524081  .00003648  00000-0  32090-4 0  9997,2 56773  69.9997 247.8737 0002958 267.8670  92.2187 15.69929439  9541,6737.236,91.724,361.094,357.108,0.0
56773.0,STARLINK-6296,PAYLOAD,2023-07-29 14:59:58,15.69915768,0.000222,69.9988,246.4421,294.1447,65.9516,1.2925e-06,-5.7e-07,0.0,0 STARLINK-6296,1 56773U 23078G   23210.62498303 -.00000057  00000-0  12925-5 0  9998,2 56773  69.9988 246.4421 0002220 294.1447  65.9516 15.69915768  9625,6737.275,91.725,360.636,357.644,0.0
56773.0,STARLINK-6296,PAYLOAD,2023-07-30 01:42:13,15.69925041,0.0003141,69.9982,245.1868,267.2374,92.8462,1.2163e-05,1.25e-05,0.0,0 STARLINK-6296,1 56773U 23078G   23211.07099259  .00001250  00000-0  12163-4 0  9993,2 56773  69.9982 245.1868 0003141 267.2374  92.8462 15.69925041  9694,6737.248,91.724,361.23,356.997,0.0
56773.0,STARLINK-6296,PAYLOAD,2023-07-31 09:49:01,15.69928332,0.0003309,69.9975,241.425,263.7012,96.3807,2.4304e-05,2.711e-05,0.0,0 STARLINK-6296,1 56773U 23078G   23212.40904171  .00002711  00000-0  24304-4 0  9992,2 56773  69.9975 241.4250 0003309 263.7012  96.3807 15.69928332  9908,6737.239,91.724,361.333,356.875,0.0
56773.0,STARLINK-6296,PAYLOAD,2023-08-01 10:17:03,15.6992537,0.0002849,69.999,238.5585,265.7791,94.3079,1.5752e-05,1.682e-05,0.0,0 STARLINK-6296,1 56773U 23078G   23213.42851093  .00001682  00000-0  15752-4 0  9992,2 56773  69.9990 238.5585 0002849 265.7791  94.3079 15.69925370 10064,6737.248,91.724,361.032,357.193,0.0
56773.0,STARLINK-6296,PAYLOAD,2023-08-02 13:48:35,15.69922289,0.0003243,69.9981,235.3344,266.7338,93.3487,6.9781e-06,6.26e-06,0.0,0 STARLINK-6296,1 56773U 23078G   23214.57541343  .00000626  00000-0  69781-5 0  9992,2 56773  69.9981 235.3344 0003243 266.7338  93.3487 15.69922289 10247,6737.256,91.724,361.306,356.936,0.0
56773.0,STARLINK-6296,PAYLOAD,2023-08-03 02:02:36,15.69932351,0.0004115,69.9985,233.9021,263.6714,96.4013,3.1243e-05,3.547e-05,0.0,0 STARLINK-6296,1 56773U 23078G   23215.08514082  .00003547  00000-0  31243-4 0  9995,2 56773  69.9985 233.9021 0004115 263.6714  96.4013 15.69932351 10329,6737.228,91.724,361.865,356.32,0.0
56773.0,STARLINK-6296,PAYLOAD,2023-08-03 09:41:22,15.69914459,0.0003209,69.9996,233.0072,258.855,101.2285,-2.0525e-05,-2.679e-05,0.0,0 STARLINK-6296,1 56773U 23078G   23215.40373287 -.00002679  00000-0 -20525-4 0  9999,2 56773  69.9996 233.0072 0003209 258.8550 101.2285 15.69914459 10375,6737.279,91.725,361.306,356.982,0.0
